[
    {
        "ARG_OF_PERICENTER": 262.0752,
        "BSTAR": 9.3672672e-05,
        "CLASSIFICATION_TYPE": "U",
        "ECCENTRICITY": 0.00082947,
        "ELEMENT_SET_NO": 999,
        "EPHEMERIS_TYPE": 0,
        "EPOCH": "2026-05-21T11:35:54.082176",
        "INCLINATION": 98.6743,
        "MEAN_ANOMALY": 97.9485,
        "MEAN_MOTION": 14.24317125,
        "MEAN_MOTION_DDOT": 0,
        "MEAN_MOTION_DOT": 1.73e-06,
        "NORAD_CAT_ID": 27844,
        "OBJECT_ID": "2003-031E",
        "OBJECT_NAME": "CUTE-1 (CO-55)",
        "RA_OF_ASC_NODE": 150.3782,
        "REV_AT_EPOCH": 18787
    },
    {
        "ARG_OF_PERICENTER": 283.6237,
        "BSTAR": 8.5962476e-05,
        "CLASSIFICATION_TYPE": "U",
        "ECCENTRICITY": 0.00082197,
        "ELEMENT_SET_NO": 999,
        "EPHEMERIS_TYPE": 0,
        "EPOCH": "2026-05-21T11:00:01.710432",
        "INCLINATION": 98.6774,
        "MEAN_ANOMALY": 76.4026,
        "MEAN_MOTION": 14.23604667,
        "MEAN_MOTION_DDOT": 0,
        "MEAN_MOTION_DOT": 1.52e-06,
        "NORAD_CAT_ID": 27848,
        "OBJECT_ID": "2003-031J",
        "OBJECT_NAME": "CUBESAT XI-IV (CO-57)",
        "RA_OF_ASC_NODE": 150.0876,
        "REV_AT_EPOCH": 18757
    },
    {
        "ARG_OF_PERICENTER": 292.4191,
        "BSTAR": 0.00013899984,
        "CLASSIFICATION_TYPE": "U",
        "ECCENTRICITY": 0.00128224,
        "ELEMENT_SET_NO": 999,
        "EPHEMERIS_TYPE": 0,
        "EPOCH": "2026-05-21T08:37:18.109632",
        "INCLINATION": 98.2957,
        "MEAN_ANOMALY": 67.5657,
        "MEAN_MOTION": 14.72549818,
        "MEAN_MOTION_DDOT": 0,
        "MEAN_MOTION_DOT": 8.31e-06,
        "NORAD_CAT_ID": 28895,
        "OBJECT_ID": "2005-043F",
        "OBJECT_NAME": "CUBESAT XI-V",
        "RA_OF_ASC_NODE": 296.4236,
        "REV_AT_EPOCH": 9780
    },
    {
        "ARG_OF_PERICENTER": 114.5514,
        "BSTAR": 0.00019266014,
        "CLASSIFICATION_TYPE": "U",
        "ECCENTRICITY": 0.00107184,
        "ELEMENT_SET_NO": 999,
        "EPHEMERIS_TYPE": 0,
        "EPOCH": "2026-05-21T14:20:19.061376",
        "INCLINATION": 97.8272,
        "MEAN_ANOMALY": 245.6833,
        "MEAN_MOTION": 15.09163611,
        "MEAN_MOTION_DDOT": 0,
        "MEAN_MOTION_DOT": 2.996e-05,
        "NORAD_CAT_ID": 32785,
        "OBJECT_ID": "2008-021C",
        "OBJECT_NAME": "CUTE-1.7+APD II (CO-65)",
        "RA_OF_ASC_NODE": 122.4718,
        "REV_AT_EPOCH": 98118
    },
    {
        "ARG_OF_PERICENTER": 129.7813,
        "BSTAR": 0.00018093954,
        "CLASSIFICATION_TYPE": "U",
        "ECCENTRICITY": 0.00115843,
        "ELEMENT_SET_NO": 999,
        "EPHEMERIS_TYPE": 0,
        "EPOCH": "2026-05-21T07:17:27.888000",
        "INCLINATION": 97.8621,
        "MEAN_ANOMALY": 230.4435,
        "MEAN_MOTION": 15.05391524,
        "MEAN_MOTION_DDOT": 0,
        "MEAN_MOTION_DOT": 2.533e-05,
        "NORAD_CAT_ID": 32790,
        "OBJECT_ID": "2008-021H",
        "OBJECT_NAME": "CANX-2",
        "RA_OF_ASC_NODE": 120.5667,
        "REV_AT_EPOCH": 98076
    },
    {
        "ARG_OF_PERICENTER": 67.6438,
        "BSTAR": 0.00041774398,
        "CLASSIFICATION_TYPE": "U",
        "ECCENTRICITY": 0.00046083,
        "ELEMENT_SET_NO": 999,
        "EPHEMERIS_TYPE": 0,
        "EPOCH": "2026-05-21T10:12:59.215968",
        "INCLINATION": 97.7526,
        "MEAN_ANOMALY": 292.5291,
        "MEAN_MOTION": 15.31723964,
        "MEAN_MOTION_DDOT": 0,
        "MEAN_MOTION_DOT": 0.00012724,
        "NORAD_CAT_ID": 32791,
        "OBJECT_ID": "2008-021J",
        "OBJECT_NAME": "SEEDS II (CO-66)",
        "RA_OF_ASC_NODE": 138.0681,
        "REV_AT_EPOCH": 98319
    },
    {
        "ARG_OF_PERICENTER": 305.3397,
        "BSTAR": 0.00013699775,
        "CLASSIFICATION_TYPE": "U",
        "ECCENTRICITY": 0.00056865,
        "ELEMENT_SET_NO": 999,
        "EPHEMERIS_TYPE": 0,
        "EPOCH": "2026-05-21T05:04:49.399104",
        "INCLINATION": 98.4053,
        "MEAN_ANOMALY": 54.7272,
        "MEAN_MOTION": 14.62421846,
        "MEAN_MOTION_DDOT": 0,
        "MEAN_MOTION_DOT": 6.44e-06,
        "NORAD_CAT_ID": 35932,
        "OBJECT_ID": "2009-051B",
        "OBJECT_NAME": "SWISSCUBE",
        "RA_OF_ASC_NODE": 48.629,
        "REV_AT_EPOCH": 88521
    },
    {
        "ARG_OF_PERICENTER": 327.5835,
        "BSTAR": 0.00011465798,
        "CLASSIFICATION_TYPE": "U",
        "ECCENTRICITY": 0.00045104,
        "ELEMENT_SET_NO": 999,
        "EPHEMERIS_TYPE": 0,
        "EPOCH": "2026-05-20T10:53:59.071488",
        "INCLINATION": 98.3982,
        "MEAN_ANOMALY": 32.5088,
        "MEAN_MOTION": 14.61668848,
        "MEAN_MOTION_DDOT": 0,
        "MEAN_MOTION_DOT": 5.22e-06,
        "NORAD_CAT_ID": 35933,
        "OBJECT_ID": "2009-051C",
        "OBJECT_NAME": "BEESAT-1",
        "RA_OF_ASC_NODE": 47.5514,
        "REV_AT_EPOCH": 88513
    },
    {
        "ARG_OF_PERICENTER": 332.8166,
        "BSTAR": 0.0001117307,
        "CLASSIFICATION_TYPE": "U",
        "ECCENTRICITY": 0.00068628,
        "ELEMENT_SET_NO": 999,
        "EPHEMERIS_TYPE": 0,
        "EPOCH": "2026-05-21T04:11:14.436096",
        "INCLINATION": 98.4067,
        "MEAN_ANOMALY": 27.2673,
        "MEAN_MOTION": 14.60394013,
        "MEAN_MOTION_DDOT": 0,
        "MEAN_MOTION_DOT": 4.92e-06,
        "NORAD_CAT_ID": 35935,
        "OBJECT_ID": "2009-051E",
        "OBJECT_NAME": "ITUPSAT1",
        "RA_OF_ASC_NODE": 47.5032,
        "REV_AT_EPOCH": 88479
    },
    {
        "ARG_OF_PERICENTER": 39.3668,
        "BSTAR": 0.00047855205,
        "CLASSIFICATION_TYPE": "U",
        "ECCENTRICITY": 0.00028053,
        "ELEMENT_SET_NO": 999,
        "EPHEMERIS_TYPE": 0,
        "EPOCH": "2026-05-20T12:55:07.729824",
        "INCLINATION": 98.0706,
        "MEAN_ANOMALY": 320.7774,
        "MEAN_MOTION": 15.30538753,
        "MEAN_MOTION_DDOT": 0,
        "MEAN_MOTION_DOT": 0.00014056,
        "NORAD_CAT_ID": 36799,
        "OBJECT_ID": "2010-035E",
        "OBJECT_NAME": "TISAT 1",
        "RA_OF_ASC_NODE": 84.6627,
        "REV_AT_EPOCH": 86347
    },
    {
        "ARG_OF_PERICENTER": 215.5677,
        "BSTAR": 0.00077914869,
        "CLASSIFICATION_TYPE": "U",
        "ECCENTRICITY": 0.0018264,
        "ELEMENT_SET_NO": 999,
        "EPHEMERIS_TYPE": 0,
        "EPOCH": "2026-05-21T06:06:17.515296",
        "INCLINATION": 64.6283,
        "MEAN_ANOMALY": 144.4262,
        "MEAN_MOTION": 15.80022698,
        "MEAN_MOTION_DDOT": 0,
        "MEAN_MOTION_DOT": 0.0014966,
        "NORAD_CAT_ID": 38767,
        "OBJECT_ID": "2012-048K",
        "OBJECT_NAME": "AEROCUBE 4.5A",
        "RA_OF_ASC_NODE": 124.216,
        "REV_AT_EPOCH": 36838
    },
    {
        "ARG_OF_PERICENTER": 317.188,
        "BSTAR": 6.74022e-05,
        "CLASSIFICATION_TYPE": "U",
        "ECCENTRICITY": 0.00077108,
        "ELEMENT_SET_NO": 999,
        "EPHEMERIS_TYPE": 0,
        "EPOCH": "2026-05-21T11:02:53.586816",
        "INCLINATION": 98.3916,
        "MEAN_ANOMALY": 42.8706,
        "MEAN_MOTION": 14.37145301,
        "MEAN_MOTION_DDOT": 0,
        "MEAN_MOTION_DOT": 1.58e-06,
        "NORAD_CAT_ID": 39090,
        "OBJECT_ID": "2013-009E",
        "OBJECT_NAME": "STRAND-1",
        "RA_OF_ASC_NODE": 322.3538,
        "REV_AT_EPOCH": 69322
    }
]